ONEWEB-0296             
1 49085U 21075L   25269.91057242  .00000312  00000+0  83170-3 0  9992
2 49085  87.8928  42.9620 0002150 102.8656 257.2713 13.12439321200041
ONEWEB-0297             
1 49086U 21075M   25269.94136446 -.00000487  00000+0 -13887-2 0  9992
2 49086  87.8921  42.9923 0001740  95.7018 264.4309 13.12440784200650
ONEWEB-0298             
1 49087U 21075N   25269.92140634  .00000008  00000+0 -11299-4 0  9990
2 49087  87.9072  58.2327 0001637  92.0912 268.0407 13.17647376198954
ONEWEB-0299             
1 49088U 21075P   25269.92296135  .00000031  00000+0  46059-4 0  9996
2 49088  87.9073  58.1898 0001811  91.8544 268.2795 13.17650960198933
ONEWEB-0300             
1 49089U 21075Q   25269.93325959 -.00000433  00000+0 -12396-2 0  9998
2 49089  87.8926  42.9478 0001413  88.3249 271.8041 13.12443565200671
ONEWEB-0301             
1 49090U 21075R   25269.91704696  .00000100  00000+0  24381-3 0  9994
2 49090  87.8923  42.9556 0001330  84.0817 276.0463 13.12440401200030
ONEWEB-0302             
1 49091U 21075S   25269.75159706  .00000515  00000+0  13969-2 0  9992
2 49091  87.8931  42.9950 0001888 106.4232 253.7105 13.12441323199997
ONEWEB-0304             
1 49092U 21075T   25269.66984010  .00000048  00000+0  91627-4 0  9997
2 49092  87.9072  58.2710 0001834  93.6743 266.4598 13.17648555198878
ONEWEB-0305             
1 49093U 21075U   25269.89090303  .00000007  00000+0 -14480-4 0  9994
2 49093  87.9076  58.2039 0002060  90.2764 269.8604 13.17648515198933
ONEWEB-0308             
1 49094U 21075V   25269.74511480  .00000527  00000+0  14284-2 0  9999
2 49094  87.8931  42.9882 0001624  97.1207 263.0106 13.12442211200007
ONEWEB-0309             
1 49095U 21075W   25269.66645350  .00000026  00000+0  33843-4 0  9993
2 49095  87.9072  58.2654 0001900 106.6589 253.4751 13.17649593198875
ONEWEB-0310             
1 49096U 21075X   25269.91218327  .00000271  00000+0  71837-3 0  9998
2 49096  87.8922  42.9986 0001683 100.5827 259.5491 13.12440718200654
ONEWEB-0311             
1 49097U 21075Y   25269.67319333  .00000021  00000+0  21996-4 0  9996
2 49097  87.9068  58.2613 0001994  87.5880 272.5480 13.17650454198926
ONEWEB-0312             
1 49098U 21075Z   25269.91619877 -.00000067  00000+0 -20543-3 0  9998
2 49098  87.9065  58.2440 0002022  96.7871 263.3490 13.17649504198931
ONEWEB-0313             
1 49099U 21075AA  25269.92112290 -.00000028  00000+0 -10539-3 0  9998
2 49099  87.9060  58.2534 0001765  93.4789 266.6545 13.17650358198921
ONEWEB-0314             
1 49100U 21075AB  25269.88752497 -.00000081  00000+0 -24184-3 0  9995
2 49100  87.9075  58.2017 0002051  95.0815 265.0551 13.17651274198897
ONEWEB-0315             
1 49101U 21075AC  25269.88622788  .00000146  00000+0  37133-3 0  9993
2 49101  87.8926  42.9494 0001829  85.8720 274.2618 13.12444638200636
