[{"OBJECT_NAME":"ONEWEB-0296","OBJECT_ID":"2021-075L","EPOCH":"2025-09-26T21:51:13.457088","MEAN_MOTION":13.12439321,"ECCENTRICITY":0.00021501,"INCLINATION":87.8928,"RA_OF_ASC_NODE":42.962,"ARG_OF_PERICENTER":102.8656,"MEAN_ANOMALY":257.2713,"EPHEMERIS_TYPE":0,"CLASSIFICATION_TYPE":"U","NORAD_CAT_ID":49085,"ELEMENT_SET_NO":999,"REV_AT_EPOCH":20004,"BSTAR":0.0008316996,"MEAN_MOTION_DOT":3.12e-6,"MEAN_MOTION_DDOT":0},{"OBJECT_NAME":"ONEWEB-0297","OBJECT_ID":"2021-075M","EPOCH":"2025-09-26T22:35:33.889344","MEAN_MOTION":13.12440784,"ECCENTRICITY":0.00017405,"INCLINATION":87.8921,"RA_OF_ASC_NODE":42.9923,"ARG_OF_PERICENTER":95.7018,"MEAN_ANOMALY":264.4309,"EPHEMERIS_TYPE":0,"CLASSIFICATION_TYPE":"U","NORAD_CAT_ID":49086,"ELEMENT_SET_NO":999,"REV_AT_EPOCH":20065,"BSTAR":-0.0013886803,"MEAN_MOTION_DOT":-4.87e-6,"MEAN_MOTION_DDOT":0},{"OBJECT_NAME":"ONEWEB-0298","OBJECT_ID":"2021-075N","EPOCH":"2025-09-26T22:06:49.507776","MEAN_MOTION":13.17647376,"ECCENTRICITY":0.00016375,"INCLINATION":87.9072,"RA_OF_ASC_NODE":58.2327,"ARG_OF_PERICENTER":92.0912,"MEAN_ANOMALY":268.0407,"EPHEMERIS_TYPE":0,"CLASSIFICATION_TYPE":"U","NORAD_CAT_ID":49087,"ELEMENT_SET_NO":999,"REV_AT_EPOCH":19895,"BSTAR":-1.1298766e-5,"MEAN_MOTION_DOT":8.0e-8,"MEAN_MOTION_DDOT":0},{"OBJECT_NAME":"ONEWEB-0299","OBJECT_ID":"2021-075P","EPOCH":"2025-09-26T22:09:03.860640","MEAN_MOTION":13.1765096,"ECCENTRICITY":0.00018112,"INCLINATION":87.9073,"RA_OF_ASC_NODE":58.1898,"ARG_OF_PERICENTER":91.8544,"MEAN_ANOMALY":268.2795,"EPHEMERIS_TYPE":0,"CLASSIFICATION_TYPE":"U","NORAD_CAT_ID":49088,"ELEMENT_SET_NO":999,"REV_AT_EPOCH":19893,"BSTAR":4.6059478e-5,"MEAN_MOTION_DOT":3.1e-7,"MEAN_MOTION_DDOT":0},{"OBJECT_NAME":"ONEWEB-0300","OBJECT_ID":"2021-075Q","EPOCH":"2025-09-26T22:23:53.628576","MEAN_MOTION":13.12443565,"ECCENTRICITY":0.00014134,"INCLINATION":87.8926,"RA_OF_ASC_NODE":42.9478,"ARG_OF_PERICENTER":88.3249,"MEAN_ANOMALY":271.8041,"EPHEMERIS_TYPE":0,"CLASSIFICATION_TYPE":"U","NORAD_CAT_ID":49089,"ELEMENT_SET_NO":999,"REV_AT_EPOCH":20067,"BSTAR":-0.0012395828,"MEAN_MOTION_DOT":-4.33e-6,"MEAN_MOTION_DDOT":0},{"OBJECT_NAME":"ONEWEB-0301","OBJECT_ID":"2021-075R","EPOCH":"2025-09-26T22:00:32.857344","MEAN_MOTION":13.12440401,"ECCENTRICITY":0.00013303,"INCLINATION":87.8923,"RA_OF_ASC_NODE":42.9556,"ARG_OF_PERICENTER":84.0817,"MEAN_ANOMALY":276.0463,"EPHEMERIS_TYPE":0,"CLASSIFICATION_TYPE":"U","NORAD_CAT_ID":49090,"ELEMENT_SET_NO":999,"REV_AT_EPOCH":20003,"BSTAR":0.00024381434,"MEAN_MOTION_DOT":1.0e-6,"MEAN_MOTION_DDOT":0},{"OBJECT_NAME":"ONEWEB-0302","OBJECT_ID":"2021-075S","EPOCH":"2025-09-26T18:02:17.985984","MEAN_MOTION":13.12441323,"ECCENTRICITY":0.00018882,"INCLINATION":87.8931,"RA_OF_ASC_NODE":42.995,"ARG_OF_PERICENTER":106.4232,"MEAN_ANOMALY":253.7105,"EPHEMERIS_TYPE":0,"CLASSIFICATION_TYPE":"U","NORAD_CAT_ID":49091,"ELEMENT_SET_NO":999,"REV_AT_EPOCH":19999,"BSTAR":0.0013969466,"MEAN_MOTION_DOT":5.15e-6,"MEAN_MOTION_DDOT":0},{"OBJECT_NAME":"ONEWEB-0304","OBJECT_ID":"2021-075T","EPOCH":"2025-09-26T16:04:34.184640","MEAN_MOTION":13.17648555,"ECCENTRICITY":0.00018346,"INCLINATION":87.9072,"RA_OF_ASC_NODE":58.271,"ARG_OF_PERICENTER":93.6743,"MEAN_ANOMALY":266.4598,"EPHEMERIS_TYPE":0,"CLASSIFICATION_TYPE":"U","NORAD_CAT_ID":49092,"ELEMENT_SET_NO":999,"REV_AT_EPOCH":19887,"BSTAR":9.1626809e-5,"MEAN_MOTION_DOT":4.8e-7,"MEAN_MOTION_DDOT":0},{"OBJECT_NAME":"ONEWEB-0305","OBJECT_ID":"2021-075U","EPOCH":"2025-09-26T21:22:54.021792","MEAN_MOTION":13.17648515,"ECCENTRICITY":0.00020607,"INCLINATION":87.9076,"RA_OF_ASC_NODE":58.2039,"ARG_OF_PERICENTER":90.2764,"MEAN_ANOMALY":269.8604,"EPHEMERIS_TYPE":0,"CLASSIFICATION_TYPE":"U","NORAD_CAT_ID":49093,"ELEMENT_SET_NO":999,"REV_AT_EPOCH":19893,"BSTAR":-1.4479822e-5,"MEAN_MOTION_DOT":7.0e-8,"MEAN_MOTION_DDOT":0},{"OBJECT_NAME":"ONEWEB-0308","OBJECT_ID":"2021-075V","EPOCH":"2025-09-26T17:52:57.918720","MEAN_MOTION":13.12442211,"ECCENTRICITY":0.00016249,"INCLINATION":87.8931,"RA_OF_ASC_NODE":42.9882,"ARG_OF_PERICENTER":97.1207,"MEAN_ANOMALY":263.0106,"EPHEMERIS_TYPE":0,"CLASSIFICATION_TYPE":"U","NORAD_CAT_ID":49094,"ELEMENT_SET_NO":999,"REV_AT_EPOCH":20000,"BSTAR":0.0014284119,"MEAN_MOTION_DOT":5.27e-6,"MEAN_MOTION_DDOT":0},{"OBJECT_NAME":"ONEWEB-0309","OBJECT_ID":"2021-075W","EPOCH":"2025-09-26T15:59:41.582400","MEAN_MOTION":13.17649593,"ECCENTRICITY":0.00019,"INCLINATION":87.9072,"RA_OF_ASC_NODE":58.2654,"ARG_OF_PERICENTER":106.6589,"MEAN_ANOMALY":253.4751,"EPHEMERIS_TYPE":0,"CLASSIFICATION_TYPE":"U","NORAD_CAT_ID":49095,"ELEMENT_SET_NO":999,"REV_AT_EPOCH":19887,"BSTAR":3.3843035e-5,"MEAN_MOTION_DOT":2.6e-7,"MEAN_MOTION_DDOT":0},{"OBJECT_NAME":"ONEWEB-0310","OBJECT_ID":"2021-075X","EPOCH":"2025-09-26T21:53:32.634528","MEAN_MOTION":13.12440718,"ECCENTRICITY":0.00016834,"INCLINATION":87.8922,"RA_OF_ASC_NODE":42.9986,"ARG_OF_PERICENTER":100.5827,"MEAN_ANOMALY":259.5491,"EPHEMERIS_TYPE":0,"CLASSIFICATION_TYPE":"U","NORAD_CAT_ID":49096,"ELEMENT_SET_NO":999,"REV_AT_EPOCH":20065,"BSTAR":0.00071836844,"MEAN_MOTION_DOT":2.71e-6,"MEAN_MOTION_DDOT":0},{"OBJECT_NAME":"ONEWEB-0311","OBJECT_ID":"2021-075Y","EPOCH":"2025-09-26T16:09:23.903712","MEAN_MOTION":13.17650454,"ECCENTRICITY":0.00019944,"INCLINATION":87.9068,"RA_OF_ASC_NODE":58.2613,"ARG_OF_PERICENTER":87.588,"MEAN_ANOMALY":272.548,"EPHEMERIS_TYPE":0,"CLASSIFICATION_TYPE":"U","NORAD_CAT_ID":49097,"ELEMENT_SET_NO":999,"REV_AT_EPOCH":19892,"BSTAR":2.1996273e-5,"MEAN_MOTION_DOT":2.1e-7,"MEAN_MOTION_DDOT":0},{"OBJECT_NAME":"ONEWEB-0312","OBJECT_ID":"2021-075Z","EPOCH":"2025-09-26T21:59:19.573728","MEAN_MOTION":13.17649504,"ECCENTRICITY":0.00020227,"INCLINATION":87.9065,"RA_OF_ASC_NODE":58.244,"ARG_OF_PERICENTER":96.7871,"MEAN_ANOMALY":263.349,"EPHEMERIS_TYPE":0,"CLASSIFICATION_TYPE":"U","NORAD_CAT_ID":49098,"ELEMENT_SET_NO":999,"REV_AT_EPOCH":19893,"BSTAR":-0.00020543423,"MEAN_MOTION_DOT":-6.7e-7,"MEAN_MOTION_DDOT":0},{"OBJECT_NAME":"ONEWEB-0313","OBJECT_ID":"2021-075AA","EPOCH":"2025-09-26T22:06:25.018560","MEAN_MOTION":13.17650358,"ECCENTRICITY":0.00017652,"INCLINATION":87.906,"RA_OF_ASC_NODE":58.2534,"ARG_OF_PERICENTER":93.4789,"MEAN_ANOMALY":266.6545,"EPHEMERIS_TYPE":0,"CLASSIFICATION_TYPE":"U","NORAD_CAT_ID":49099,"ELEMENT_SET_NO":999,"REV_AT_EPOCH":19892,"BSTAR":-0.00010538729,"MEAN_MOTION_DOT":-2.8e-7,"MEAN_MOTION_DDOT":0},{"OBJECT_NAME":"ONEWEB-0314","OBJECT_ID":"2021-075AB","EPOCH":"2025-09-26T21:18:02.157408","MEAN_MOTION":13.17651274,"ECCENTRICITY":0.00020511,"INCLINATION":87.9075,"RA_OF_ASC_NODE":58.2017,"ARG_OF_PERICENTER":95.0815,"MEAN_ANOMALY":265.0551,"EPHEMERIS_TYPE":0,"CLASSIFICATION_TYPE":"U","NORAD_CAT_ID":49100,"ELEMENT_SET_NO":999,"REV_AT_EPOCH":19889,"BSTAR":-0.00024184457,"MEAN_MOTION_DOT":-8.1e-7,"MEAN_MOTION_DDOT":0},{"OBJECT_NAME":"ONEWEB-0315","OBJECT_ID":"2021-075AC","EPOCH":"2025-09-26T21:16:10.088832","MEAN_MOTION":13.12444638,"ECCENTRICITY":0.00018292,"INCLINATION":87.8926,"RA_OF_ASC_NODE":42.9494,"ARG_OF_PERICENTER":85.872,"MEAN_ANOMALY":274.2618,"EPHEMERIS_TYPE":0,"CLASSIFICATION_TYPE":"U","NORAD_CAT_ID":49101,"ELEMENT_SET_NO":999,"REV_AT_EPOCH":20063,"BSTAR":0.00037133171,"MEAN_MOTION_DOT":1.46e-6,"MEAN_MOTION_DDOT":0}]
